*******************************************************************************
Ephemeris / WWW_USER Mon Mar 24 08:20:06 2025 Pasadena, USA      / Horizons    
*******************************************************************************
Target body name: (2018 VA2)                      {source: JPL#8}
Center body name: Earth (399)                     {source: DE441}
Center-site name: Mauna Kea
*******************************************************************************
Start time      : A.D. 2019-Jan-05 04:06:00.0000 UT      
Stop  time      : A.D. 2019-Jan-05 16:47:00.0000 UT      
Step-size       : 1 minutes
*******************************************************************************
Target pole/equ : undefined
Target radii    : undefined                                                    
Center geodetic : 204.5278, 19.8260847, 4.21024   {E-lon(deg),Lat(deg),Alt(km)}
Center cylindric: 204.5278, 6006.35451, 2151.0229 {E-lon(deg),Dxy(km),Dz(km)}
Center pole/equ : ITRF93                          {East-longitude positive}
Center radii    : 6378.137, 6378.137, 6356.752 km {Equator_a, b, pole_c}       
Target primary  : Sun
Vis. interferer : MOON (R_eq= 1737.400) km        {source: DE441}
Rel. light bend : Sun                             {source: DE441}
Rel. lght bnd GM: 1.3271E+11 km^3/s^2                                          
Small-body perts: Yes                             {source: SB441-N16}
Atmos refraction: NO (AIRLESS)
RA format       : HMS
Time format     : CAL 
Calendar mode   : Mixed Julian/Gregorian
RTS-only print  : NO       
EOP file        : eop.250321.p250617                                           
EOP coverage    : DATA-BASED 1962-JAN-20 TO 2025-MAR-21. PREDICTS-> 2025-JUN-16
Units conversion: 1 au= 149597870.700 km, c= 299792.458 km/s, 1 day= 86400.0 s 
Table cut-offs 1: Elevation (-90.0deg=NO ),Airmass (>38.000=NO), Daylight (YES)
Table cut-offs 2: Solar elongation (  0.0,180.0=NO ),Local Hour Angle( 0.0=NO )
Table cut-offs 3: RA/DEC angular rate (     0.0=NO )                           
*******************************************************************************
Initial IAU76/J2000 heliocentric ecliptic osculating elements (au, days, deg.):
  EPOCH=  2458428.5 ! 2018-Nov-06.00 (TDB)         Residual RMS= .39675        
   EC= .3242664208426159   QR= .935847567628844    TP= 2458464.9625425939      
   OM= 226.0068906557846   W=  220.7446970607937   IN= 3.947636678272312       
  Equivalent ICRF heliocentric cartesian coordinates (au, au/d):
   X= 7.314601530918681E-01  Y= 6.289465658343808E-01  Z= 2.763726037901882E-01
  VX=-1.554701504922309E-02 VY= 1.109318211007817E-02 VZ= 3.366540373951610E-03
Asteroid physical parameters (km, seconds, rotational period in hours):        
   GM= n.a.                RAD= n.a.               ROTPER= n.a.                
   H= 27.08                G= .150                 B-V= n.a.                   
                           ALBEDO= n.a.            STYP= n.a.                  
*******************************************************************************
 Date__(UT)__HR:MN     R.A._________(ICRF)_________DEC
******************************************************
$$SOE
 2019-Jan-05 12:18     13 15 55.291150 -26 37 18.85348
 2019-Jan-05 12:19     13 15 55.347241 -26 37 19.10157
 2019-Jan-05 12:20     13 15 55.403280 -26 37 19.34952
 2019-Jan-05 12:21     13 15 55.459268 -26 37 19.59731
 2019-Jan-05 12:22     13 15 55.515204 -26 37 19.84496
 2019-Jan-05 12:23     13 15 55.571089 -26 37 20.09245
 2019-Jan-05 12:24     13 15 55.626923 -26 37 20.33980
 2019-Jan-05 12:25     13 15 55.682706 -26 37 20.58699
 2019-Jan-05 12:26     13 15 55.738437 -26 37 20.83402
 2019-Jan-05 12:27     13 15 55.794118 -26 37 21.08090
 2019-Jan-05 12:28     13 15 55.849749 -26 37 21.32763
 2019-Jan-05 12:29     13 15 55.905328 -26 37 21.57419
 2019-Jan-05 12:30     13 15 55.960857 -26 37 21.82060
 2019-Jan-05 12:31     13 15 56.016336 -26 37 22.06685
 2019-Jan-05 12:32     13 15 56.071764 -26 37 22.31293
 2019-Jan-05 12:33     13 15 56.127143 -26 37 22.55885
 2019-Jan-05 12:34     13 15 56.182471 -26 37 22.80460
 2019-Jan-05 12:35     13 15 56.237749 -26 37 23.05019
 2019-Jan-05 12:36     13 15 56.292978 -26 37 23.29561
 2019-Jan-05 12:37     13 15 56.348157 -26 37 23.54086
 2019-Jan-05 12:38     13 15 56.403286 -26 37 23.78594
 2019-Jan-05 12:39     13 15 56.458366 -26 37 24.03085
 2019-Jan-05 12:40     13 15 56.513397 -26 37 24.27559
 2019-Jan-05 12:41     13 15 56.568378 -26 37 24.52015
 2019-Jan-05 12:42     13 15 56.623311 -26 37 24.76454
 2019-Jan-05 12:43     13 15 56.678194 -26 37 25.00875
 2019-Jan-05 12:44     13 15 56.733029 -26 37 25.25279
 2019-Jan-05 12:45     13 15 56.787815 -26 37 25.49664
 2019-Jan-05 12:46     13 15 56.842552 -26 37 25.74032
 2019-Jan-05 12:47     13 15 56.897241 -26 37 25.98381
 2019-Jan-05 12:48     13 15 56.951882 -26 37 26.22712
 2019-Jan-05 12:49     13 15 57.006475 -26 37 26.47025
 2019-Jan-05 12:50     13 15 57.061019 -26 37 26.71319
 2019-Jan-05 12:51     13 15 57.115516 -26 37 26.95594
 2019-Jan-05 12:52     13 15 57.169965 -26 37 27.19851
 2019-Jan-05 12:53     13 15 57.224366 -26 37 27.44088
 2019-Jan-05 12:54     13 15 57.278720 -26 37 27.68307
 2019-Jan-05 12:55     13 15 57.333027 -26 37 27.92506
 2019-Jan-05 12:56     13 15 57.387286 -26 37 28.16687
 2019-Jan-05 12:57     13 15 57.441498 -26 37 28.40847
 2019-Jan-05 12:58     13 15 57.495664 -26 37 28.64989
 2019-Jan-05 12:59     13 15 57.549782 -26 37 28.89110
 2019-Jan-05 13:00     13 15 57.603854 -26 37 29.13212
 2019-Jan-05 13:01     13 15 57.657880 -26 37 29.37294
 2019-Jan-05 13:02     13 15 57.711859 -26 37 29.61356
 2019-Jan-05 13:03     13 15 57.765792 -26 37 29.85398
 2019-Jan-05 13:04     13 15 57.819679 -26 37 30.09419
 2019-Jan-05 13:05     13 15 57.873520 -26 37 30.33420
 2019-Jan-05 13:06     13 15 57.927315 -26 37 30.57401
 2019-Jan-05 13:07     13 15 57.981065 -26 37 30.81361
 2019-Jan-05 13:08     13 15 58.034769 -26 37 31.05300
 2019-Jan-05 13:09     13 15 58.088427 -26 37 31.29218
 2019-Jan-05 13:10     13 15 58.142041 -26 37 31.53116
 2019-Jan-05 13:11     13 15 58.195610 -26 37 31.76992
 2019-Jan-05 13:12     13 15 58.249133 -26 37 32.00847
 2019-Jan-05 13:13     13 15 58.302612 -26 37 32.24681
 2019-Jan-05 13:14     13 15 58.356047 -26 37 32.48493
 2019-Jan-05 13:15     13 15 58.409437 -26 37 32.72284
 2019-Jan-05 13:16     13 15 58.462783 -26 37 32.96053
 2019-Jan-05 13:17     13 15 58.516085 -26 37 33.19801
 2019-Jan-05 13:18     13 15 58.569342 -26 37 33.43526
 2019-Jan-05 13:19     13 15 58.622557 -26 37 33.67229
 2019-Jan-05 13:20     13 15 58.675727 -26 37 33.90911
 2019-Jan-05 13:21     13 15 58.728854 -26 37 34.14570
 2019-Jan-05 13:22     13 15 58.781938 -26 37 34.38206
 2019-Jan-05 13:23     13 15 58.834978 -26 37 34.61821
 2019-Jan-05 13:24     13 15 58.887976 -26 37 34.85412
 2019-Jan-05 13:25     13 15 58.940931 -26 37 35.08981
 2019-Jan-05 13:26     13 15 58.993843 -26 37 35.32527
 2019-Jan-05 13:27     13 15 59.046712 -26 37 35.56050
 2019-Jan-05 13:28     13 15 59.099540 -26 37 35.79551
 2019-Jan-05 13:29     13 15 59.152325 -26 37 36.03028
 2019-Jan-05 13:30     13 15 59.205068 -26 37 36.26481
 2019-Jan-05 13:31     13 15 59.257770 -26 37 36.49912
 2019-Jan-05 13:32     13 15 59.310429 -26 37 36.73319
 2019-Jan-05 13:33     13 15 59.363048 -26 37 36.96702
 2019-Jan-05 13:34     13 15 59.415625 -26 37 37.20062
 2019-Jan-05 13:35     13 15 59.468161 -26 37 37.43398
 2019-Jan-05 13:36     13 15 59.520656 -26 37 37.66710
 2019-Jan-05 13:37     13 15 59.573110 -26 37 37.89998
 2019-Jan-05 13:38     13 15 59.625523 -26 37 38.13261
 2019-Jan-05 13:39     13 15 59.677896 -26 37 38.36501
 2019-Jan-05 13:40     13 15 59.730229 -26 37 38.59716
 2019-Jan-05 13:41     13 15 59.782522 -26 37 38.82907
 2019-Jan-05 13:42     13 15 59.834775 -26 37 39.06074
 2019-Jan-05 13:43     13 15 59.886988 -26 37 39.29215
 2019-Jan-05 13:44     13 15 59.939161 -26 37 39.52332
 2019-Jan-05 13:45     13 15 59.991295 -26 37 39.75425
 2019-Jan-05 13:46     13 16 00.043390 -26 37 39.98492
 2019-Jan-05 13:47     13 16 00.095446 -26 37 40.21534
 2019-Jan-05 13:48     13 16 00.147463 -26 37 40.44551
 2019-Jan-05 13:49     13 16 00.199442 -26 37 40.67543
 2019-Jan-05 13:50     13 16 00.251382 -26 37 40.90509
 2019-Jan-05 13:51     13 16 00.303284 -26 37 41.13450
 2019-Jan-05 13:52     13 16 00.355147 -26 37 41.36366
 2019-Jan-05 13:53     13 16 00.406973 -26 37 41.59255
 2019-Jan-05 13:54     13 16 00.458761 -26 37 41.82120
 2019-Jan-05 13:55     13 16 00.510511 -26 37 42.04958
 2019-Jan-05 13:56     13 16 00.562224 -26 37 42.27770
 2019-Jan-05 13:57     13 16 00.613900 -26 37 42.50556
 2019-Jan-05 13:58     13 16 00.665539 -26 37 42.73316
 2019-Jan-05 13:59     13 16 00.717141 -26 37 42.96050
 2019-Jan-05 14:00     13 16 00.768706 -26 37 43.18758
 2019-Jan-05 14:01     13 16 00.820235 -26 37 43.41439
 2019-Jan-05 14:02     13 16 00.871728 -26 37 43.64093
 2019-Jan-05 14:03     13 16 00.923185 -26 37 43.86721
 2019-Jan-05 14:04     13 16 00.974606 -26 37 44.09323
 2019-Jan-05 14:05     13 16 01.025991 -26 37 44.31897
 2019-Jan-05 14:06     13 16 01.077341 -26 37 44.54445
 2019-Jan-05 14:07     13 16 01.128655 -26 37 44.76966
 2019-Jan-05 14:08     13 16 01.179935 -26 37 44.99459
 2019-Jan-05 14:09     13 16 01.231179 -26 37 45.21925
 2019-Jan-05 14:10     13 16 01.282389 -26 37 45.44365
 2019-Jan-05 14:11     13 16 01.333565 -26 37 45.66776
 2019-Jan-05 14:12     13 16 01.384706 -26 37 45.89161
 2019-Jan-05 14:13     13 16 01.435813 -26 37 46.11518
 2019-Jan-05 14:14     13 16 01.486886 -26 37 46.33847
 2019-Jan-05 14:15     13 16 01.537926 -26 37 46.56148
 2019-Jan-05 14:16     13 16 01.588932 -26 37 46.78422
 2019-Jan-05 14:17     13 16 01.639905 -26 37 47.00668
 2019-Jan-05 14:18     13 16 01.690844 -26 37 47.22886
 2019-Jan-05 14:19     13 16 01.741751 -26 37 47.45076
 2019-Jan-05 14:20     13 16 01.792625 -26 37 47.67238
